[{"OBJECT_NAME":"YINHE-1","OBJECT_ID":"2020-004A","EPOCH":"2026-03-09T22:55:05.644416","MEAN_MOTION":14.79015566,"ECCENTRICITY":0.00131658,"INCLINATION":86.3997,"RA_OF_ASC_NODE":160.1115,"ARG_OF_PERICENTER":358.9121,"MEAN_ANOMALY":1.2068,"EPHEMERIS_TYPE":0,"CLASSIFICATION_TYPE":"U","NORAD_CAT_ID":45024,"ELEMENT_SET_NO":999,"REV_AT_EPOCH":33125,"BSTAR":0.00018596346,"MEAN_MOTION_DOT":1.401e-5,"MEAN_MOTION_DDOT":0},{"OBJECT_NAME":"TITAN 3C TRANSTAGE DEB","OBJECT_ID":"1965-082QJ","EPOCH":"2026-03-09T21:48:44.529408","MEAN_MOTION":14.78635581,"ECCENTRICITY":0.00241297,"INCLINATION":32.2286,"RA_OF_ASC_NODE":290.9393,"ARG_OF_PERICENTER":266.6123,"MEAN_ANOMALY":93.1768,"EPHEMERIS_TYPE":0,"CLASSIFICATION_TYPE":"U","NORAD_CAT_ID":3488,"ELEMENT_SET_NO":999,"REV_AT_EPOCH":18321,"BSTAR":0.00028216073,"MEAN_MOTION_DOT":2.157e-5,"MEAN_MOTION_DDOT":0}]
